[{"OBJECT_NAME":"STARLINK-31396","OBJECT_ID":"2024-064M","EPOCH":"2026-03-09T22:16:52.760352","MEAN_MOTION":15.27565375,"ECCENTRICITY":0.00016695,"INCLINATION":43.0039,"RA_OF_ASC_NODE":44.3141,"ARG_OF_PERICENTER":276.9218,"MEAN_ANOMALY":83.1443,"EPHEMERIS_TYPE":0,"CLASSIFICATION_TYPE":"U","NORAD_CAT_ID":59409,"ELEMENT_SET_NO":999,"REV_AT_EPOCH":10932,"BSTAR":-3.344012e-5,"MEAN_MOTION_DOT":-1.182e-5,"MEAN_MOTION_DDOT":0},{"OBJECT_NAME":"FLOCK 4G-26","OBJECT_ID":"2025-009AA","EPOCH":"2026-03-09T19:19:02.910720","MEAN_MOTION":15.27281631,"ECCENTRICITY":0.0001988,"INCLINATION":97.4054,"RA_OF_ASC_NODE":151.3913,"ARG_OF_PERICENTER":299.1273,"MEAN_ANOMALY":60.9767,"EPHEMERIS_TYPE":0,"CLASSIFICATION_TYPE":"U","NORAD_CAT_ID":62633,"ELEMENT_SET_NO":999,"REV_AT_EPOCH":6373,"BSTAR":0.00042468806,"MEAN_MOTION_DOT":0.00011283,"MEAN_MOTION_DDOT":0}]
